$$SOE
2461295.500000000, A.D. 2026-Sep-12 00:00:00.0000, -3.479752797471328E+08, -5.190657505392633E+07, -4.048496390841252E+07,
2461302.500000000, A.D. 2026-Sep-19 00:00:00.0000, -3.473142754332520E+08, -6.396535070822419E+07, -3.842310419278787E+07,
2461309.500000000, A.D. 2026-Sep-26 00:00:00.0000, -3.462772080213472E+08, -7.595484536975467E+07, -3.631963177113968E+07,
2461316.500000000, A.D. 2026-Oct-03 00:00:00.0000, -3.448687415229393E+08, -8.786285858452117E+07, -3.417719588467738E+07,
2461323.500000000, A.D. 2026-Oct-10 00:00:00.0000, -3.430939660280188E+08, -9.967753525961210E+07, -3.199844942977834E+07,
2461330.500000000, A.D. 2026-Oct-17 00:00:00.0000, -3.409583725044984E+08, -1.113873788043769E+08, -2.978604324324227E+07,
2461337.500000000, A.D. 2026-Oct-24 00:00:00.0000, -3.384678274793541E+08, -1.229812624360261E+08, -2.754262069236346E+07,
2461344.500000000, A.D. 2026-Oct-31 00:00:00.0000, -3.356285476507050E+08, -1.344484387773045E+08, -2.527081259498351E+07,
2461351.500000000, A.D. 2026-Nov-07 00:00:00.0000, -3.324470742287061E+08, -1.457785477431493E+08, -2.297323250201056E+07,
2461358.500000000, A.D. 2026-Nov-14 00:00:00.0000, -3.289302469291553E+08, -1.569616219080387E+08, -2.065247229262660E+07,
2461365.500000000, A.D. 2026-Nov-21 00:00:00.0000, -3.250851795434270E+08, -1.679880887583430E+08, -1.831109786180634E+07,
2461372.500000000, A.D. 2026-Nov-28 00:00:00.0000, -3.209192381837283E+08, -1.788487729310693E+08, -1.595164505382401E+07,
2461379.500000000, A.D. 2026-Dec-05 00:00:00.0000, -3.164400186764920E+08, -1.895348991931064E+08, -1.357661622459850E+07,
2461386.500000000, A.D. 2026-Dec-12 00:00:00.0000, -3.116553230188941E+08, -2.000380931473399E+08, -1.118847718813069E+07,
2461393.500000000, A.D. 2026-Dec-19 00:00:00.0000, -3.065731368503773E+08, -2.103503797563712E+08, -8.789654365507305E+06,
2461400.500000000, A.D. 2026-Dec-26 00:00:00.0000, -3.012016081339789E+08, -2.204641806514457E+08, -6.382532185426474E+06,
2461407.500000000, A.D. 2027-Jan-02 00:00:00.0000, -2.955490268160353E+08, -2.303723105189353E+08, -3.969450767539278E+06,
2461414.500000000, A.D. 2027-Jan-09 00:00:00.0000, -2.896238053846830E+08, -2.400679726441641E+08, -1.552703886932462E+06,
2461421.500000000, A.D. 2027-Jan-16 00:00:00.0000, -2.834344603206456E+08, -2.495447537002813E+08, 8.654627897191793E+05,
2461428.500000000, A.D. 2027-Jan-23 00:00:00.0000, -2.769895944143293E+08, -2.587966179150633E+08, 3.282853201683432E+06,
2461435.500000000, A.D. 2027-Jan-30 00:00:00.0000, -2.702978797738965E+08, -2.678179007535115E+08, 5.697322117556006E+06,
2461442.500000000, A.D. 2027-Feb-06 00:00:00.0000, -2.633680411055761E+08, -2.766033018623101E+08, 8.106776087003499E+06,
2461449.500000000, A.D. 2027-Feb-13 00:00:00.0000, -2.562088397262780E+08, -2.851478761370285E+08, 1.050917427670842E+07,
2461456.500000000, A.D. 2027-Feb-20 00:00:00.0000, -2.488290606651807E+08, -2.934470237773622E+08, 1.290252935655382E+07,
2461463.500000000, A.D. 2027-Feb-27 00:00:00.0000, -2.412375014449457E+08, -3.014964826137969E+08, 1.528490805888180E+07,
2461470.500000000, A.D. 2027-Mar-06 00:00:00.0000, -2.334429595060930E+08, -3.092923208487315E+08, 1.765443130427355E+07,
2461477.500000000, A.D. 2027-Mar-13 00:00:00.0000, -2.254542198507569E+08, -3.168309282237961E+08, 2.000927422067881E+07,
2461484.500000000, A.D. 2027-Mar-20 00:00:00.0000, -2.172800440076011E+08, -3.241090065069612E+08, 2.234766610321148E+07,
2461491.500000000, A.D. 2027-Mar-27 00:00:00.0000, -2.089291600881025E+08, -3.311235599054276E+08, 2.466789026295753E+07,
2461498.500000000, A.D. 2027-Apr-03 00:00:00.0000, -2.004102537043646E+08, -3.378718855052018E+08, 2.696828375414945E+07,
2461505.500000000, A.D. 2027-Apr-10 00:00:00.0000, -1.917319596602303E+08, -3.443515637617245E+08, 2.924723698797047E+07,
2461512.500000000, A.D. 2027-Apr-17 00:00:00.0000, -1.829028543651373E+08, -3.505604490968025E+08, 3.150319324155146E+07,
2461519.500000000, A.D. 2027-Apr-24 00:00:00.0000, -1.739314488606983E+08, -3.564966606993018E+08, 3.373464806088974E+07,
2461526.500000000, A.D. 2027-May-01 00:00:00.0000, -1.648261821278365E+08, -3.621585735329091E+08, 3.594014854273753E+07,
2461533.500000000, A.D. 2027-May-08 00:00:00.0000, -1.555954143339776E+08, -3.675448088301654E+08, 3.811829253793983E+07,
2461540.500000000, A.D. 2027-May-15 00:00:00.0000, -1.462474214839588E+08, -3.726542231429106E+08, 4.026772800011545E+07,
2461547.500000000, A.D. 2027-May-22 00:00:00.0000, -1.367903930047936E+08, -3.774858985607560E+08, 4.238715241905296E+07,
2461554.500000000, A.D. 2027-May-29 00:00:00.0000, -1.272324288751581E+08, -3.820391355846365E+08, 4.447531191830742E+07,
2461561.500000000, A.D. 2027-Jun-05 00:00:00.0000, -1.175815353832761E+08, -3.863134455405650E+08, 4.653100019887629E+07,
2461568.500000000, A.D. 2027-Jun-12 00:00:00.0000, -1.078456214898321E+08, -3.903085421148643E+08, 4.855305755483821E+07,
2461575.500000000, A.D. 2027-Jun-19 00:00:00.0000, -9.803249609610559E+07, -3.940243329562094E+08, 5.054036992072286E+07,
2461582.500000000, A.D. 2027-Jun-26 00:00:00.0000, -8.814986590767117E+07, -3.974609116145501E+08, 5.249186790899830E+07,
2461589.500000000, A.D. 2027-Jul-03 00:00:00.0000, -7.820533373227432E+07, -4.006185498163897E+08, 5.440652583134060E+07,
2461596.500000000, A.D. 2027-Jul-10 00:00:00.0000, -6.820639714732108E+07, -4.034976900748429E+08, 5.628336070609926E+07,
2461603.500000000, A.D. 2027-Jul-17 00:00:00.0000, -5.816044747506209E+07, -4.060989386794444E+08, 5.812143125056815E+07,
2461610.500000000, A.D. 2027-Jul-24 00:00:00.0000, -4.807476888549782E+07, -4.084230591326312E+08, 5.991983684341247E+07,
2461617.500000000, A.D. 2027-Jul-31 00:00:00.0000, -3.795653719335597E+07, -4.104709657992364E+08, 6.167771644298929E+07,
2461624.500000000, A.D. 2027-Aug-07 00:00:00.0000, -2.781281852859406E+07, -4.122437166170672E+08, 6.339424757760109E+07,
2461631.500000000, A.D. 2027-Aug-14 00:00:00.0000, -1.765057016088306E+07, -4.137425051194832E+08, 6.506864560066715E+07,
2461638.500000000, A.D. 2027-Aug-21 00:00:00.0000, -7.476642839116126E+06, -4.149686551306464E+08, 6.670016288112406E+07,
2461645.500000000, A.D. 2027-Aug-28 00:00:00.0000, 2.702218805175474E+06, -4.159236169279661E+08, 6.828808771483371E+07,
2461652.500000000, A.D. 2027-Sep-04 00:00:00.0000, 1.287937662742291E+07, -4.166089623673759E+08, 6.983174327206323E+07,
2461659.500000000, A.D. 2027-Sep-11 00:00:00.0000, 2.304829873396189E+07, -4.170263796292308E+08, 7.133048665672843E+07,
2461666.500000000, A.D. 2027-Sep-18 00:00:00.0000, 3.320255878923571E+07, -4.171776682304119E+08, 7.278370801336999E+07,
2461673.500000000, A.D. 2027-Sep-25 00:00:00.0000, 4.333583510995935E+07, -4.170647343749775E+08, 7.419082965550663E+07,
2461680.500000000, A.D. 2027-Oct-02 00:00:00.0000, 5.344190963546101E+07, -4.166895866099639E+08, 7.555130521140614E+07,
2461687.500000000, A.D. 2027-Oct-09 00:00:00.0000, 6.351466681045288E+07, -4.160543317849591E+08, 7.686461878543982E+07,
2461694.500000000, A.D. 2027-Oct-16 00:00:00.0000, 7.354809245653589E+07, -4.151611713650494E+08, 7.813028412562029E+07,
2461701.500000000, A.D. 2027-Oct-23 00:00:00.0000, 8.353627290404381E+07, -4.140123980981232E+08, 7.934784377421093E+07,
2461708.500000000, A.D. 2027-Oct-30 00:00:00.0000, 9.347339476880939E+07, -4.126103924213083E+08, 8.051686821800517E+07,
2461715.500000000, A.D. 2027-Nov-06 00:00:00.0000, 1.033537442184943E+08, -4.109576174722188E+08, 8.163695523756947E+07,
2461722.500000000, A.D. 2027-Nov-13 00:00:00.0000, 1.131717037503576E+08, -4.090566147726320E+08, 8.270772946701390E+07,
2461729.500000000, A.D. 2027-Nov-20 00:00:00.0000, 1.229217493908755E+08, -4.069100027608141E+08, 8.372884171799298E+07,
2461736.500000000, A.D. 2027-Nov-27 00:00:00.0000, 1.325984499447608E+08, -4.045204752003563E+08, 8.469996816109815E+07,
2461743.500000000, A.D. 2027-Dec-04 00:00:00.0000, 1.421964662796633E+08, -4.018907985460616E+08, 8.562080962515628E+07,
2461750.500000000, A.D. 2027-Dec-11 00:00:00.0000, 1.517105501047740E+08, -3.990238092265599E+08, 8.649109098705240E+07,
2461757.500000000, A.D. 2027-Dec-18 00:00:00.0000, 1.611355425254795E+08, -3.959224111791382E+08, 8.731056060035041E+07,
2461764.500000000, A.D. 2027-Dec-25 00:00:00.0000, 1.704663725314877E+08, -3.925895736350240E+08, 8.807898974951492E+07,
2461771.500000000, A.D. 2028-Jan-01 00:00:00.0000, 1.796980554641821E+08, -3.890283291355609E+08, 8.879617212736066E+07,
$$EOE